{
    "links": {
        "self": "http://www.neowsapp.com/rest/v1/neo/54051136?api_key=iIulBulltgU6a56xZRHN4H3l9WmuAYTsLGpBGhQ2"
    },
    "id": "54051136",
    "neo_reference_id": "54051136",
    "name": "(2020 QL)",
    "designation": "2020 QL",
    "nasa_jpl_url": "http://ssd.jpl.nasa.gov/sbdb.cgi?sstr=54051136",
    "absolute_magnitude_h": 24.326,
    "estimated_diameter": {
        "kilometers": {
            "estimated_diameter_min": 0.0362539204,
            "estimated_diameter_max": 0.0810662304
        },
        "meters": {
            "estimated_diameter_min": 36.2539203783,
            "estimated_diameter_max": 81.0662304168
        },
        "miles": {
            "estimated_diameter_min": 0.0225271348,
            "estimated_diameter_max": 0.0503722047
        },
        "feet": {
            "estimated_diameter_min": 118.943312134,
            "estimated_diameter_max": 265.9653314007
        }
    },
    "is_potentially_hazardous_asteroid": false,
    "close_approach_data": [
        {
            "close_approach_date": "1953-08-17",
            "close_approach_date_full": "1953-Aug-17 01:08",
            "epoch_date_close_approach": -516754320000,
            "relative_velocity": {
                "kilometers_per_second": "4.8316394776",
                "kilometers_per_hour": "17393.9021195132",
                "miles_per_hour": "10807.8943475386"
            },
            "miss_distance": {
                "astronomical": "0.2266923629",
                "lunar": "88.1833291681",
                "kilometers": "33912694.635107023",
                "miles": "21072371.3074139974"
            },
            "orbiting_body": "Earth"
        },
        {
            "close_approach_date": "1999-08-15",
            "close_approach_date_full": "1999-Aug-15 06:18",
            "epoch_date_close_approach": 934697880000,
            "relative_velocity": {
                "kilometers_per_second": "5.4884324027",
                "kilometers_per_hour": "19758.3566498728",
                "miles_per_hour": "12277.0744416946"
            },
            "miss_distance": {
                "astronomical": "0.3487270734",
                "lunar": "135.6548315526",
                "kilometers": "52168827.391973658",
                "miles": "32416206.1819181604"
            },
            "orbiting_body": "Earth"
        },
        {
            "close_approach_date": "2020-08-18",
            "close_approach_date_full": "2020-Aug-18 05:52",
            "epoch_date_close_approach": 1597729920000,
            "relative_velocity": {
                "kilometers_per_second": "4.689198421",
                "kilometers_per_hour": "16881.1143155869",
                "miles_per_hour": "10489.2679479267"
            },
            "miss_distance": {
                "astronomical": "0.2140502278",
                "lunar": "83.2655386142",
                "kilometers": "32021458.151894786",
                "miles": "19897211.4496326068"
            },
            "orbiting_body": "Earth"
        },
        {
            "close_approach_date": "2026-09-23",
            "close_approach_date_full": "2026-Sep-23 13:03",
            "epoch_date_close_approach": 1790168580000,
            "relative_velocity": {
                "kilometers_per_second": "2.9180267642",
                "kilometers_per_hour": "10504.8963509826",
                "miles_per_hour": "6527.3340687536"
            },
            "miss_distance": {
                "astronomical": "1.6323349874",
                "lunar": "634.9783100986",
                "kilometers": "244193837.241516838",
                "miles": "151735014.4157668444"
            },
            "orbiting_body": "Juptr"
        },
        {
            "close_approach_date": "2175-08-25",
            "close_approach_date_full": "2175-Aug-25 21:21",
            "epoch_date_close_approach": 6489667260000,
            "relative_velocity": {
                "kilometers_per_second": "5.6794135178",
                "kilometers_per_hour": "20445.8886641704",
                "miles_per_hour": "12704.280098023"
            },
            "miss_distance": {
                "astronomical": "0.2343587207",
                "lunar": "91.1655423523",
                "kilometers": "35059565.432644909",
                "miles": "21785003.7757973842"
            },
            "orbiting_body": "Earth"
        }
    ],
    "orbital_data": {
        "orbit_id": "2",
        "orbit_determination_date": "2020-08-23 06:55:50",
        "first_observation_date": "2020-07-11",
        "last_observation_date": "2020-08-22",
        "data_arc_in_days": 42,
        "observations_used": 28,
        "orbit_uncertainty": "6",
        "minimum_orbit_intersection": ".214135",
        "jupiter_tisserand_invariant": "3.199",
        "epoch_osculation": "2459000.5",
        "eccentricity": ".5281395519885147",
        "semi_major_axis": "2.595951796241827",
        "inclination": "5.042689353874245",
        "ascending_node_longitude": "137.1961119763617",
        "orbital_period": "1527.718587581401",
        "perihelion_distance": "1.224926977590888",
        "perihelion_argument": "190.7961911345185",
        "aphelion_distance": "3.966976614892765",
        "perihelion_time": "2459083.200772928958",
        "mean_anomaly": "340.511935577377",
        "mean_motion": ".2356454931728834",
        "equinox": "J2000",
        "orbit_class": {
            "orbit_class_type": "AMO",
            "orbit_class_description": "Near-Earth asteroid orbits similar to that of 1221 Amor",
            "orbit_class_range": "1.017 AU < q (perihelion) < 1.3 AU"
        }
    },
    "is_sentry_object": false
}